{
  "type": "FeatureCollection",
  "name": "dustnav_nodes",
  "crs": {
    "type": "name",
    "properties": {
      "name": "urn:ogc:def:crs:OGC:1.3:CRS84"
    }
  },
  "features": [
    {
      "type": "Feature",
      "properties": {
        "id": "node_canyon_hideout",
        "name": "Esconderijo das Sombras do Cânion",
        "type": "canyon_hideout",
        "biome": "high_relief_canyons",
        "danger_level": 2,
        "description": "Abrigo em um cânion profundo, protegido do calor direto, mas sujeito a quedas de rocha, enxurradas repentinas e poeira em suspensão.",
        "resources": {
          "water": 45,
          "fuel": 20,
          "scrap": 50,
          "thermal_stability": 60
        },
        "type_group": "shelter"
      },
      "geometry": {
        "type": "Point",
        "coordinates": [
          138.38,
          -30.3
        ]
      }
    },
    {
      "type": "Feature",
      "properties": {
        "id": "node_gorge_bastion",
        "name": "Bastião da Garganta Profunda",
        "type": "canyon_bastion",
        "biome": "high_relief_canyons",
        "danger_level": 2,
        "description": "Posto instalado numa encosta estreita. A erosão avançou sobre a antiga estrada e chuvas intensas costumam isolar o local.",
        "resources": {
          "water": 40,
          "fuel": 25,
          "scrap": 65,
          "thermal_stability": 55
        },
        "type_group": "shelter"
      },
      "geometry": {
        "type": "Point",
        "coordinates": [
          138.42,
          -30.38
        ]
      }
    },
    {
      "type": "Feature",
      "properties": {
        "id": "node_boneyard_iron_widow",
        "name": "Sucata da Viúva das Fendas",
        "type": "scrap_boneyard",
        "biome": "high_relief_canyons",
        "danger_level": 2,
        "description": "Pátio de veículos abandonados no fundo do vale, onde peças são recuperadas após anos de enchentes, ferrugem e deslizamentos.",
        "resources": {
          "water": 20,
          "fuel": 15,
          "scrap": 90,
          "thermal_stability": 50
        },
        "type_group": "recovery"
      },
      "geometry": {
        "type": "Point",
        "coordinates": [
          138.46,
          -30.45
        ]
      }
    },
    {
      "type": "Feature",
      "properties": {
        "id": "node_dead_pass",
        "name": "Passo da Guilhotina",
        "type": "dead_pass",
        "biome": "high_relief_canyons",
        "danger_level": 5,
        "description": "Passagem de alta declividade, com solo instável e pouca cobertura. Ventos fortes e deslizamentos tornam a travessia especialmente arriscada.",
        "resources": {
          "water": 5,
          "fuel": 10,
          "scrap": 40,
          "thermal_stability": 40
        },
        "type_group": "route_hazard"
      },
      "geometry": {
        "type": "Point",
        "coordinates": [
          138.39,
          -30.48
        ]
      }
    },
    {
      "type": "Feature",
      "properties": {
        "id": "node_dome_hyperion",
        "name": "Dômo Hyperion Prime",
        "type": "citadel_dome",
        "biome": "corporate_domes",
        "danger_level": 1,
        "description": "Complexo corporativo climatizado que concentra água tratada e energia. Do lado de fora, o contraste com o calor e a fumaça é extremo.",
        "resources": {
          "water": 90,
          "fuel": 60,
          "scrap": 35,
          "thermal_stability": 98
        },
        "type_group": "settlement"
      },
      "geometry": {
        "type": "Point",
        "coordinates": [
          138.48,
          -30.15
        ]
      }
    },
    {
      "type": "Feature",
      "properties": {
        "id": "node_oasis_last_drop",
        "name": "Oásis Última Gota",
        "type": "hydro_oasis",
        "biome": "corporate_domes",
        "danger_level": 1,
        "description": "Reservatório de água de reuso abastecido por condensação e captação irregular. A disponibilidade varia com a umidade e com a energia dos equipamentos.",
        "resources": {
          "water": 100,
          "fuel": 15,
          "scrap": 20,
          "thermal_stability": 80
        },
        "type_group": "water"
      },
      "geometry": {
        "type": "Point",
        "coordinates": [
          138.53,
          -30.22
        ]
      }
    },
    {
      "type": "Feature",
      "properties": {
        "id": "node_dome_meridian",
        "name": "Dômo Meridiano da Trégua",
        "type": "citadel_dome",
        "biome": "corporate_domes",
        "danger_level": 1,
        "description": "Antiga cúpula parcialmente danificada, usada como mercado e oficina. Falhas na vedação expõem os moradores à poeira e às ondas de calor.",
        "resources": {
          "water": 75,
          "fuel": 45,
          "scrap": 55,
          "thermal_stability": 85
        },
        "type_group": "settlement"
      },
      "geometry": {
        "type": "Point",
        "coordinates": [
          138.6,
          -30.28
        ]
      }
    },
    {
      "type": "Feature",
      "properties": {
        "id": "node_oasis_thermal_spring",
        "name": "Fonte Termal dos Vales",
        "type": "hydro_oasis",
        "biome": "corporate_domes",
        "danger_level": 2,
        "description": "Fonte de água aquecida por atividade geotérmica e pela infraestrutura industrial próxima. A qualidade é monitorada devido à contaminação do solo.",
        "resources": {
          "water": 85,
          "fuel": 20,
          "scrap": 25,
          "thermal_stability": 75
        },
        "type_group": "water"
      },
      "geometry": {
        "type": "Point",
        "coordinates": [
          138.54,
          -30.34
        ]
      }
    },
    {
      "type": "Feature",
      "properties": {
        "id": "node_tower_frostspire",
        "name": "Torre Espinho de Gelo",
        "type": "weather_tower",
        "biome": "frozen_wastes",
        "danger_level": 5,
        "description": "Torre meteorológica desativada em uma região de frio persistente. O gelo acumulado rompe estruturas e reduz a visibilidade durante as tempestades.",
        "resources": {
          "water": 35,
          "fuel": 10,
          "scrap": 50,
          "thermal_stability": 5
        },
        "type_group": "climate_monitoring"
      },
      "geometry": {
        "type": "Point",
        "coordinates": [
          138.8,
          -30.12
        ]
      }
    },
    {
      "type": "Feature",
      "properties": {
        "id": "node_mine_permafrost",
        "name": "Mina do Permafrost Negro",
        "type": "frozen_mine",
        "biome": "frozen_wastes",
        "danger_level": 3,
        "description": "Mina abandonada sob solo congelado. O degelo sazonal provoca infiltrações, colapsos no teto e liberação de gases presos no permafrost.",
        "resources": {
          "water": 50,
          "fuel": 15,
          "scrap": 80,
          "thermal_stability": 15
        },
        "type_group": "extraction"
      },
      "geometry": {
        "type": "Point",
        "coordinates": [
          138.87,
          -30.16
        ]
      }
    },
    {
      "type": "Feature",
      "properties": {
        "id": "node_camp_vulture",
        "name": "Ninho dos Abutres de Gelo",
        "type": "bandit_camp",
        "biome": "frozen_wastes",
        "danger_level": 4,
        "description": "Acampamento improvisado junto a um corredor de tempestades de neve. Seus moradores desmontam veículos para obter aquecimento e peças.",
        "resources": {
          "water": 20,
          "fuel": 30,
          "scrap": 65,
          "thermal_stability": 20
        },
        "type_group": "settlement"
      },
      "geometry": {
        "type": "Point",
        "coordinates": [
          138.76,
          -30.22
        ]
      }
    },
    {
      "type": "Feature",
      "properties": {
        "id": "node_mine_cryo_veins",
        "name": "Veias Criogênicas de Minério",
        "type": "frozen_mine",
        "biome": "frozen_wastes",
        "danger_level": 4,
        "description": "Área de extração com gelo fraturado e equipamentos expostos. Fendas se abrem quando o solo congela e descongela em ciclos rápidos.",
        "resources": {
          "water": 30,
          "fuel": 10,
          "scrap": 85,
          "thermal_stability": 10
        },
        "type_group": "extraction"
      },
      "geometry": {
        "type": "Point",
        "coordinates": [
          138.86,
          -30.27
        ]
      }
    },
    {
      "type": "Feature",
      "properties": {
        "id": "node_boneyard_rust_king",
        "name": "Cemitério do Rei da Ferrugem",
        "type": "scrap_boneyard",
        "biome": "scorched_desert",
        "danger_level": 3,
        "description": "Grande depósito de sucata em uma planície árida. A exposição ao sol, à areia e à chuva ácida deteriorou quase todos os veículos.",
        "resources": {
          "water": 5,
          "fuel": 25,
          "scrap": 95,
          "thermal_stability": 40
        },
        "type_group": "recovery"
      },
      "geometry": {
        "type": "Point",
        "coordinates": [
          138.68,
          -30.38
        ]
      }
    },
    {
      "type": "Feature",
      "properties": {
        "id": "node_refinery_scorch",
        "name": "Refinaria da Chama Ardente",
        "type": "fuel_refinery",
        "biome": "scorched_desert",
        "danger_level": 4,
        "description": "Refinaria parcialmente operacional cercada por solo queimado. Vazamentos, incêndios recorrentes e fumaça tóxica limitam o trabalho ao ar livre.",
        "resources": {
          "water": 5,
          "fuel": 100,
          "scrap": 30,
          "thermal_stability": 25
        },
        "type_group": "fuel"
      },
      "geometry": {
        "type": "Point",
        "coordinates": [
          138.76,
          -30.4
        ]
      }
    },
    {
      "type": "Feature",
      "properties": {
        "id": "node_gas_town",
        "name": "Vila do Óleo (Gas Town)",
        "type": "fuel_refinery",
        "biome": "scorched_desert",
        "danger_level": 4,
        "description": "Aglomerado construído ao redor de instalações de combustível. A poluição do ar é constante e incêndios se espalham rapidamente durante os períodos secos.",
        "resources": {
          "water": 10,
          "fuel": 95,
          "scrap": 60,
          "thermal_stability": 30
        },
        "type_group": "fuel"
      },
      "geometry": {
        "type": "Point",
        "coordinates": [
          138.83,
          -30.46
        ]
      }
    },
    {
      "type": "Feature",
      "properties": {
        "id": "node_camp_ash_reapers",
        "name": "Forte dos Ceifadores de Cinzas",
        "type": "bandit_camp",
        "biome": "scorched_desert",
        "danger_level": 5,
        "description": "Acampamento armado em uma área afetada por incêndios e resíduos industriais. A água é escassa e a poeira contaminada exige proteção respiratória.",
        "resources": {
          "water": 5,
          "fuel": 40,
          "scrap": 70,
          "thermal_stability": 20
        },
        "type_group": "settlement"
      },
      "geometry": {
        "type": "Point",
        "coordinates": [
          138.71,
          -30.48
        ]
      }
    }
  ]
}
