{
  "type": "FeatureCollection",
  "name": "dustnav_zones",
  "crs": {
    "type": "name",
    "properties": {
      "name": "urn:ogc:def:crs:OGC:1.3:CRS84"
    }
  },
  "features": [
    {
      "type": "Feature",
      "properties": {
        "id": "zone_canyon_killpeaks",
        "name": "Zona das Agulhas de Pedra & Guilhotina",
        "biome_focus": "high_relief_canyons",
        "zone_type": "faction_hostile",
        "threat_level": "tier_3",
        "danger_multiplier": 2.2,
        "stealth_penalty": 0.85,
        "description": "Região de cânions com erosão acelerada e encostas instáveis. Chuvas concentradas provocam enxurradas e deslizamentos que bloqueiam as rotas.",
        "type_group": "human_pressure",
        "type": "faction_hostile"
      },
      "geometry": {
        "type": "Polygon",
        "coordinates": [
          [
            [
              138.35,
              -30.52
            ],
            [
              138.48,
              -30.52
            ],
            [
              138.48,
              -30.42
            ],
            [
              138.35,
              -30.42
            ],
            [
              138.35,
              -30.52
            ]
          ]
        ]
      }
    },
    {
      "type": "Feature",
      "properties": {
        "id": "zone_frostspire_blizzard",
        "name": "Vórtice Glacial da Torre Espinho",
        "biome_focus": "frozen_wastes",
        "zone_type": "environmental_hazard",
        "threat_level": "tier_3",
        "danger_multiplier": 2.7,
        "stealth_penalty": 0.3,
        "description": "Área de frio persistente afetada por tempestades de neve e ciclos de congelamento e degelo. A visibilidade cai rapidamente e estruturas sem manutenção colapsam.",
        "type_group": "climate_hazard",
        "type": "environmental_hazard"
      },
      "geometry": {
        "type": "Polygon",
        "coordinates": [
          [
            [
              138.74,
              -30.25
            ],
            [
              138.9,
              -30.25
            ],
            [
              138.9,
              -30.08
            ],
            [
              138.74,
              -30.08
            ],
            [
              138.74,
              -30.25
            ]
          ]
        ]
      }
    },
    {
      "type": "Feature",
      "properties": {
        "id": "zone_radioactive_scorch_flames",
        "name": "Inferno de Cinzas & Dunas Radioativas",
        "biome_focus": "scorched_desert",
        "zone_type": "environmental_hazard",
        "threat_level": "tier_3",
        "danger_multiplier": 2.5,
        "stealth_penalty": 0.4,
        "description": "Planície árida marcada por incêndios industriais, poeira contaminada e escassez de água. Ondas de calor prolongadas tornam o ar perigoso e degradam o solo.",
        "type_group": "climate_hazard",
        "type": "environmental_hazard"
      },
      "geometry": {
        "type": "Polygon",
        "coordinates": [
          [
            [
              138.65,
              -30.52
            ],
            [
              138.86,
              -30.52
            ],
            [
              138.86,
              -30.36
            ],
            [
              138.65,
              -30.36
            ],
            [
              138.65,
              -30.52
            ]
          ]
        ]
      }
    }
  ]
}
